NORAD_CAT_ID,OBJECT_NAME,OBJECT_TYPE,EPOCH,MEAN_MOTION,ECCENTRICITY,INCLINATION,RA_OF_ASC_NODE,ARG_OF_PERICENTER,MEAN_ANOMALY,BSTAR,MEAN_MOTION_DOT,MEAN_MOTION_DDOT,TLE_LINE0,TLE_LINE1,TLE_LINE2,SEMIMAJOR_AXIS,PERIOD,APOGEE,PERIGEE,DECAYED
50202.0,STARLINK-3256,PAYLOAD,2024-02-19 21:04:22,15.08835148,0.0001051,53.2187,0.6641,97.8437,262.2674,6.3558e-05,7.24e-06,0.0,0 STARLINK-3256,1 50202U 21125AY  24050.87804080  .00000724  00000-0  63558-4 0  9990,2 50202  53.2187   0.6641 0001051  97.8437 262.2674 15.08835148123681,6917.895,95.438,540.487,539.033,0.0
50202.0,STARLINK-3256,PAYLOAD,2024-02-20 03:25:55,15.08834326,0.0001414,53.218,359.4809,86.2402,273.8752,5.6818e-05,6.16e-06,0.0,0 STARLINK-3256,1 50202U 21125AY  24051.14300362  .00000616  00000-0  56818-4 0  9996,2 50202  53.2180 359.4809 0001414  86.2402 273.8752 15.08834326123246,6917.898,95.438,540.741,538.785,0.0
50202.0,STARLINK-3256,PAYLOAD,2024-02-20 12:58:14,15.08836564,0.000121,53.2169,357.6941,85.4491,274.6639,-1.8122e-05,-5.76e-06,0.0,0 STARLINK-3256,1 50202U 21125AY  24051.54044250 -.00000576  00000-0 -18122-4 0  9994,2 50202  53.2169 357.6941 0001210  85.4491 274.6639 15.08836564123781,6917.891,95.438,540.593,538.919,0.0
50202.0,STARLINK-3256,PAYLOAD,2024-02-21 03:16:42,15.08846578,0.0001341,53.2184,355.0167,84.3054,275.8091,0.00012825,1.754e-05,0.0,0 STARLINK-3256,1 50202U 21125AY  24052.13659877  .00001754  00000-0  12825-3 0  9997,2 50202  53.2184 355.0167 0001341  84.3054 275.8091 15.08846578123396,6917.86,95.437,540.653,538.798,0.0
50202.0,STARLINK-3256,PAYLOAD,2024-02-21 12:49:01,15.08844969,0.0001364,53.2189,353.2352,89.8408,270.274,0.00021467,3.131e-05,0.0,0 STARLINK-3256,1 50202U 21125AY  24052.53403986  .00003131  00000-0  21467-3 0  9992,2 50202  53.2189 353.2352 0001364  89.8408 270.2740 15.08844969123937,6917.865,95.437,540.674,538.787,0.0
50202.0,STARLINK-3256,PAYLOAD,2024-02-22 03:07:30,15.08834407,0.000155,53.2183,350.5592,84.8447,275.2722,5.5339e-05,5.93e-06,0.0,0 STARLINK-3256,1 50202U 21125AY  24053.13020869  .00000593  00000-0  55339-4 0  9999,2 50202  53.2183 350.5592 0001550  84.8447 275.2722 15.08834407123540,6917.897,95.438,540.835,538.69,0.0
50202.0,STARLINK-3256,PAYLOAD,2024-02-22 04:42:53,15.088366,0.0001721,53.2194,350.2643,92.8928,267.2261,0.00010017,1.306e-05,0.0,0 STARLINK-3256,1 50202U 21125AY  24053.19644832  .00001306  00000-0  10017-3 0  9993,2 50202  53.2194 350.2643 0001721  92.8928 267.2261 15.08836600124030,6917.891,95.438,540.946,538.565,0.0
50202.0,STARLINK-3256,PAYLOAD,2024-02-23 02:58:16,15.08847816,0.0001659,53.2188,346.0978,85.7041,274.414,0.0001476,2.062e-05,0.0,0 STARLINK-3256,1 50202U 21125AY  24054.12380299  .00002062  00000-0  14760-3 0  9990,2 50202  53.2188 346.0978 0001659  85.7041 274.4140 15.08847816123692,6917.856,95.437,540.869,538.574,0.0
50202.0,STARLINK-3256,PAYLOAD,2024-02-23 12:30:35,15.08844258,0.0001521,53.2196,344.3128,86.8213,273.2953,0.00013148,1.805e-05,0.0,0 STARLINK-3256,1 50202U 21125AY  24054.52124284  .00001805  00000-0  13148-3 0  9997,2 50202  53.2196 344.3128 0001521  86.8213 273.2953 15.08844258124237,6917.867,95.437,540.785,538.68,0.0
50202.0,STARLINK-3256,PAYLOAD,2024-02-23 18:52:08,15.08839132,0.0001733,53.2189,343.1262,93.1287,266.9904,0.00013766,1.903e-05,0.0,0 STARLINK-3256,1 50202U 21125AY  24054.78621015  .00001903  00000-0  13766-3 0  9994,2 50202  53.2189 343.1262 0001733  93.1287 266.9904 15.08839132123792,6917.883,95.438,540.947,538.549,0.0
50202.0,STARLINK-3256,PAYLOAD,2024-02-24 12:21:22,15.08844334,0.0001701,53.2185,339.8538,93.6461,266.4726,0.00013655,1.886e-05,0.0,0 STARLINK-3256,1 50202U 21125AY  24055.51484701  .00001886  00000-0  13655-3 0  9992,2 50202  53.2185 339.8538 0001701  93.6461 266.4726 15.08844334124383,6917.867,95.437,540.909,538.555,0.0
50202.0,STARLINK-3256,PAYLOAD,2024-02-25 12:12:09,15.0885178,0.0001695,53.2188,335.393,87.6087,272.5099,0.00015473,2.176e-05,0.0,0 STARLINK-3256,1 50202U 21125AY  24056.50844116  .00002176  00000-0  15473-3 0  9995,2 50202  53.2188 335.3930 0001695  87.6087 272.5099 15.08851780124050,6917.844,95.437,540.882,538.537,0.0
50202.0,STARLINK-3256,PAYLOAD,2024-02-25 21:44:28,15.08849399,0.0001809,53.2189,333.6088,91.7816,268.3383,0.00013978,1.938e-05,0.0,0 STARLINK-3256,1 50202U 21125AY  24056.90588176  .00001938  00000-0  13978-3 0  9993,2 50202  53.2189 333.6088 0001809  91.7816 268.3383 15.08849399124590,6917.852,95.437,540.968,538.465,0.0
50202.0,STARLINK-3256,PAYLOAD,2024-02-26 04:06:00,15.08853944,0.0001677,53.2199,332.4163,112.1707,247.9463,0.00020139,2.92e-05,0.0,0 STARLINK-3256,1 50202U 21125AY  24057.17083654  .00002920  00000-0  20139-3 0  9993,2 50202  53.2199 332.4163 0001677 112.1707 247.9463 15.08853944124630,6917.838,95.437,540.863,538.543,0.0
50202.0,STARLINK-3256,PAYLOAD,2024-02-26 18:24:29,15.0883411,0.0001295,53.2192,329.7418,91.9951,268.1189,-6.5523e-05,-1.33e-05,0.0,0 STARLINK-3256,1 50202U 21125AY  24057.76700784 -.00001330  00000-0 -65523-4 0  9991,2 50202  53.2192 329.7418 0001295  91.9951 268.1189 15.08834110124247,6917.898,95.438,540.659,538.868,0.0
50202.0,STARLINK-3256,PAYLOAD,2024-02-26 21:35:15,15.08837115,0.0001556,53.2184,329.1475,99.9496,260.1671,-2.6447e-05,-7.09e-06,0.0,0 STARLINK-3256,1 50202U 21125AY  24057.89948638 -.00000709  00000-0 -26447-4 0  9998,2 50202  53.2184 329.1475 0001556  99.9496 260.1671 15.08837115124748,6917.889,95.438,540.831,538.678,0.0
50202.0,STARLINK-3256,PAYLOAD,2024-02-27 03:56:48,15.08837114,0.0001582,53.2181,327.9574,94.9981,265.1192,6.3514e-05,7.23e-06,0.0,0 STARLINK-3256,1 50202U 21125AY  24058.16444679  .00000723  00000-0  63514-4 0  9995,2 50202  53.2181 327.9574 0001582  94.9981 265.1192 15.08837114124780,6917.889,95.438,540.849,538.66,0.0
50202.0,STARLINK-3256,PAYLOAD,2024-02-27 21:26:02,15.08838995,0.0001609,53.2176,324.6865,102.5784,257.5389,9.0483e-05,1.152e-05,0.0,0 STARLINK-3256,1 50202U 21125AY  24058.89308753  .00001152  00000-0  90483-4 0  9999,2 50202  53.2176 324.6865 0001609 102.5784 257.5389 15.08838995124891,6917.883,95.438,540.862,538.635,0.0
50202.0,STARLINK-3256,PAYLOAD,2024-02-28 00:36:49,15.08841635,0.0001448,53.2177,324.0949,91.5956,268.5202,0.00017297,2.466e-05,0.0,0 STARLINK-3256,1 50202U 21125AY  24059.02556722  .00002466  00000-0  17297-3 0  9996,2 50202  53.2177 324.0949 0001448  91.5956 268.5202 15.08841635124439,6917.875,95.437,540.742,538.739,0.0
50202.0,STARLINK-3256,PAYLOAD,2024-02-28 10:09:07,15.08839837,0.0001437,53.2172,322.3109,93.4861,266.6296,0.00012149,1.646e-05,0.0,0 STARLINK-3256,1 50202U 21125AY  24059.42300872  .00001646  00000-0  12149-3 0  9993,2 50202  53.2172 322.3109 0001437  93.4861 266.6296 15.08839837124979,6917.881,95.438,540.74,538.752,0.0
50202.0,STARLINK-3256,PAYLOAD,2024-02-28 21:16:50,15.08834197,0.0001637,53.2182,320.2318,105.9341,254.1832,0.0001306,1.791e-05,0.0,0 STARLINK-3256,1 50202U 21125AY  24059.88669356  .00001791  00000-0  13060-3 0  9992,2 50202  53.2182 320.2318 0001637 105.9341 254.1832 15.08834197124560,6917.898,95.438,540.896,538.631,0.0
50202.0,STARLINK-3256,PAYLOAD,2024-02-28 22:52:13,15.08835774,0.0001639,53.2181,319.9347,105.5583,254.5591,0.00010839,1.437e-05,0.0,0 STARLINK-3256,1 50202U 21125AY  24059.95293256  .00001437  00000-0  10839-3 0  9990,2 50202  53.2181 319.9347 0001639 105.5583 254.5591 15.08835774125055,6917.893,95.438,540.892,538.624,0.0
50202.0,STARLINK-3256,PAYLOAD,2024-02-29 09:59:55,15.08839403,0.00016,53.2181,317.853,104.7854,255.3316,0.00013458,1.854e-05,0.0,0 STARLINK-3256,1 50202U 21125AY  24060.41661234  .00001854  00000-0  13458-3 0  9991,2 50202  53.2181 317.8530 0001600 104.7854 255.3316 15.08839403125121,6917.882,95.438,540.854,538.64,0.0
50202.0,STARLINK-3256,PAYLOAD,2024-02-29 22:43:00,15.08842187,0.0001577,53.2183,315.4743,104.1044,256.0124,0.00010661,1.409e-05,0.0,0 STARLINK-3256,1 50202U 21125AY  24060.94653148  .00001409  00000-0  10661-3 0  9993,2 50202  53.2183 315.4743 0001577 104.1044 256.0124 15.08842187125208,6917.874,95.437,540.83,538.648,0.0
50202.0,STARLINK-3256,PAYLOAD,2024-03-01 01:53:46,15.08843489,0.0001462,53.2177,314.8773,91.4569,268.6591,0.00011692,1.573e-05,0.0,0 STARLINK-3256,1 50202U 21125AY  24061.07901098  .00001573  00000-0  11692-3 0  9995,2 50202  53.2177 314.8773 0001462  91.4569 268.6591 15.08843489124741,6917.87,95.437,540.746,538.723,0.0
50202.0,STARLINK-3256,PAYLOAD,2024-03-01 20:58:23,15.08848847,0.0001285,53.2177,311.3057,91.6065,268.5074,0.00032012,4.812e-05,0.0,0 STARLINK-3256,1 50202U 21125AY  24061.87388832  .00004812  00000-0  32012-3 0  9996,2 50202  53.2177 311.3057 0001285  91.6065 268.5074 15.08848847125349,6917.853,95.437,540.607,538.829,0.0
50202.0,STARLINK-3256,PAYLOAD,2024-03-02 00:09:10,15.08855611,0.000153,53.2174,310.7125,93.3969,266.7198,0.00027841,4.148e-05,0.0,0 STARLINK-3256,1 50202U 21125AY  24062.00636577  .00004148  00000-0  27841-3 0  9990,2 50202  53.2174 310.7125 0001530  93.3969 266.7198 15.08855611124882,6917.833,95.437,540.756,538.639,0.0
50202.0,STARLINK-3256,PAYLOAD,2024-03-02 22:24:34,15.08844032,0.0001583,53.2176,306.5461,70.1199,289.9964,0.00015135,2.122e-05,0.0,0 STARLINK-3256,1 50202U 21125AY  24062.93373172  .00002122  00000-0  15135-3 0  9994,2 50202  53.2176 306.5461 0001583  70.1199 289.9964 15.08844032125509,6917.868,95.437,540.828,538.638,0.0
50202.0,STARLINK-3256,PAYLOAD,2024-03-03 09:32:16,15.08842777,0.0001396,53.2169,304.4655,92.3593,267.7559,0.00014167,1.968e-05,0.0,0 STARLINK-3256,1 50202U 21125AY  24063.39741130  .00001968  00000-0  14167-3 0  9999,2 50202  53.2169 304.4655 0001396  92.3593 267.7559 15.08842777125574,6917.872,95.437,540.703,538.771,0.0
50202.0,STARLINK-3256,PAYLOAD,2024-03-03 20:39:58,15.08844068,0.0001432,53.217,302.3847,87.1663,272.9493,0.00011337,1.517e-05,0.0,0 STARLINK-3256,1 50202U 21125AY  24063.86109113  .00001517  00000-0  11337-3 0  9996,2 50202  53.2170 302.3847 0001432  87.1663 272.9493 15.08844068125645,6917.868,95.437,540.724,538.742,0.0
